[{"OBJECT_NAME":"STARLINK-2714","OBJECT_ID":"2021-041BC","EPOCH":"2026-03-09T12:09:07.246368","MEAN_MOTION":15.06404435,"ECCENTRICITY":0.00013941,"INCLINATION":53.0552,"RA_OF_ASC_NODE":112.4423,"ARG_OF_PERICENTER":94.341,"MEAN_ANOMALY":265.7738,"EPHEMERIS_TYPE":0,"CLASSIFICATION_TYPE":"U","NORAD_CAT_ID":48603,"ELEMENT_SET_NO":999,"REV_AT_EPOCH":26672,"BSTAR":0.00015382409,"MEAN_MOTION_DOT":2.011e-5,"MEAN_MOTION_DDOT":0},{"OBJECT_NAME":"OBJECT B","OBJECT_ID":"2024-174B","EPOCH":"2026-03-09T23:26:11.570784","MEAN_MOTION":15.09493991,"ECCENTRICITY":0.00195829,"INCLINATION":97.4508,"RA_OF_ASC_NODE":75.153,"ARG_OF_PERICENTER":270.277,"MEAN_ANOMALY":89.6216,"EPHEMERIS_TYPE":0,"CLASSIFICATION_TYPE":"U","NORAD_CAT_ID":61239,"ELEMENT_SET_NO":999,"REV_AT_EPOCH":8042,"BSTAR":0.00031274192,"MEAN_MOTION_DOT":4.97e-5,"MEAN_MOTION_DDOT":0}]
